start=new Date('2023-02-24T00:00:00.000Z').valueOf();
sats=[{"LAUNCH_DATE":"2020-10-24","FILE":"3828819","MEAN_MOTION":"15.06402392","BSTAR":"0.00084711000000","OBJECT_TYPE":"PAYLOAD","EPOCH":"2023-02-23T14:26:02.858208","INCLINATION":"53.0526","GP_ID":"226565298","TLE_LINE1":"1 46740U 20074B   23054.60142197  .00012359  00000-0  84711-3 0  9992","REF_FRAME":"TEME","RA_OF_ASC_NODE":"269.9981","PERIAPSIS":"546.329","MEAN_ANOMALY":"260.3967","MEAN_MOTION_DDOT":"0.0000000000000","MEAN_ELEMENT_THEORY":"SGP4","COUNTRY_CODE":"US","APOAPSIS":"548.083","RCS_SIZE":"LARGE","TIME_SYSTEM":"UTC","EPHEMERIS_TYPE":"0","TLE_LINE2":"2 46740  53.0526 269.9981 0001266  99.7165 260.3967 15.06402392129287","CLASSIFICATION_TYPE":"U","REV_AT_EPOCH":"12928","OBJECT_ID":"2020-074B","ECCENTRICITY":"0.00012660","ARG_OF_PERICENTER":"99.7165","PERIOD":"95.592","ELEMENT_SET_NO":"999","SITE":"AFETR","CENTER_NAME":"EARTH","MEAN_MOTION_DOT":"0.00012359","DECAY_DATE":null,"NORAD_CAT_ID":"46740","OBJECT_NAME":"STARLINK-1848","SEMIMAJOR_AXIS":"6925.341"},{"OBJECT_NAME":"STARLINK-1865","NORAD_CAT_ID":"46741","SEMIMAJOR_AXIS":"6925.304","MEAN_MOTION_DOT":"0.00013348","DECAY_DATE":null,"PERIOD":"95.591","CENTER_NAME":"EARTH","ELEMENT_SET_NO":"999","SITE":"AFETR","REV_AT_EPOCH":"12942","OBJECT_ID":"2020-074C","CLASSIFICATION_TYPE":"U","TLE_LINE2":"2 46741  53.0498 263.4363 0001111 103.2809 256.8303 15.06414683129420","EPHEMERIS_TYPE":"0","ARG_OF_PERICENTER":"103.2809","ECCENTRICITY":"0.00011110","COUNTRY_CODE":"US","TIME_SYSTEM":"UTC","RCS_SIZE":"LARGE","APOAPSIS":"547.938","PERIAPSIS":"546.399","MEAN_ELEMENT_THEORY":"SGP4","MEAN_MOTION_DDOT":"0.0000000000000","MEAN_ANOMALY":"256.8303","TLE_LINE1":"1 46741U 20074C   23054.95018929  .00013348  00000-0  91296-3 0  9991","REF_FRAME":"TEME","INCLINATION":"53.0498","GP_ID":"226584191","EPOCH":"2023-02-23T22:48:16.354656","RA_OF_ASC_NODE":"263.4363","LAUNCH_DATE":"2020-10-24","OBJECT_TYPE":"PAYLOAD","BSTAR":"0.00091296000000","MEAN_MOTION":"15.06414683","FILE":"3829450"},{"PERIAPSIS":"354.527","MEAN_MOTION_DDOT":"0.0000000000000","MEAN_ELEMENT_THEORY":"SGP4","MEAN_ANOMALY":"314.2446","COUNTRY_CODE":"US","TIME_SYSTEM":"UTC","APOAPSIS":"359.338","RCS_SIZE":"LARGE","LAUNCH_DATE":"2020-10-24","OBJECT_TYPE":"PAYLOAD","BSTAR":"0.00115260000000","MEAN_MOTION":"15.70687713","FILE":"3828452","GP_ID":"226536926","INCLINATION":"53.0471","TLE_LINE1":"1 46742U 20074D   23054.66667824  .00147496  00000-0  11526-2 0  9993","REF_FRAME":"TEME","EPOCH":"2023-02-23T16:00:00.999936","RA_OF_ASC_NODE":"210.4181","MEAN_MOTION_DOT":"0.00147496","DECAY_DATE":null,"NORAD_CAT_ID":"46742","OBJECT_NAME":"STARLINK-1872","SEMIMAJOR_AXIS":"6735.067","OBJECT_ID":"2020-074D","REV_AT_EPOCH":"13014","TLE_LINE2":"2 46742  53.0471 210.4181 0003572 305.6756 314.2446 15.70687713130149","CLASSIFICATION_TYPE":"U","EPHEMERIS_TYPE":"0","ARG_OF_PERICENTER":"305.6756","ECCENTRICITY":"0.00035720","PERIOD":"91.680","CENTER_NAME":"EARTH","SITE":"AFETR","ELEMENT_SET_NO":"999"},{"BSTAR":"0.00034184000000","OBJECT_TYPE":"PAYLOAD","MEAN_MOTION":"15.06391862","FILE":"3828819","LAUNCH_DATE":"2020-10-24","RA_OF_ASC_NODE":"264.9487","INCLINATION":"53.0532","GP_ID":"226564549","REF_FRAME":"TEME","TLE_LINE1":"1 46743U 20074E   23054.61109447  .00004813  00000-0  34184-3 0  9992","EPOCH":"2023-02-23T14:39:58.562208","MEAN_MOTION_DDOT":"0.0000000000000","MEAN_ELEMENT_THEORY":"SGP4","MEAN_ANOMALY":"277.9671","PERIAPSIS":"546.548","TIME_SYSTEM":"UTC","RCS_SIZE":"LARGE","APOAPSIS":"547.929","COUNTRY_CODE":"US","ARG_OF_PERICENTER":"82.1431","ECCENTRICITY":"0.00009970","OBJECT_ID":"2020-074E","REV_AT_EPOCH":"12936","CLASSIFICATION_TYPE":"U","TLE_LINE2":"2 46743  53.0532 264.9487 0000997  82.1431 277.9671 15.06391862129369","EPHEMERIS_TYPE":"0","CENTER_NAME":"EARTH","SITE":"AFETR","ELEMENT_SET_NO":"999","PERIOD":"95.593","DECAY_DATE":null,"MEAN_MOTION_DOT":"0.00004813","SEMIMAJOR_AXIS":"6925.373","NORAD_CAT_ID":"46743","OBJECT_NAME":"STARLINK-1892"},{"MEAN_MOTION":"15.06382765","FILE":"3828819","BSTAR":"0.00035420000000","OBJECT_TYPE":"PAYLOAD","LAUNCH_DATE":"2020-10-24","RA_OF_ASC_NODE":"267.5461","EPOCH":"2023-02-23T00:45:17.192736","TLE_LINE1":"1 46744U 20074F   23054.03144899  .00004996  00000-0  35420-3 0  9995","REF_FRAME":"TEME","INCLINATION":"53.0514","GP_ID":"226564799","MEAN_ANOMALY":"266.0846","MEAN_ELEMENT_THEORY":"SGP4","MEAN_MOTION_DDOT":"0.0000000000000","PERIAPSIS":"546.317","RCS_SIZE":"LARGE","APOAPSIS":"548.216","TIME_SYSTEM":"UTC","COUNTRY_CODE":"US","ECCENTRICITY":"0.00013710","ARG_OF_PERICENTER":"94.0300","CLASSIFICATION_TYPE":"U","TLE_LINE2":"2 46744  53.0514 267.5461 0001371  94.0300 266.0846 15.06382765129270","EPHEMERIS_TYPE":"0","OBJECT_ID":"2020-074F","REV_AT_EPOCH":"12927","ELEMENT_SET_NO":"999","SITE":"AFETR","CENTER_NAME":"EARTH","PERIOD":"95.593","DECAY_DATE":null,"MEAN_MOTION_DOT":"0.00004996","SEMIMAJOR_AXIS":"6925.401","OBJECT_NAME":"STARLINK-1894","NORAD_CAT_ID":"46744"},{"TLE_LINE2":"2 46746  53.0519 265.1024 0000827  79.7664 280.3418 15.06388811129355","CLASSIFICATION_TYPE":"U","EPHEMERIS_TYPE":"0","OBJECT_ID":"2020-074H","REV_AT_EPOCH":"12935","ECCENTRICITY":"0.00008270","ARG_OF_PERICENTER":"79.7664","PERIOD":"95.593","SITE":"AFETR","ELEMENT_SET_NO":"999","CENTER_NAME":"EARTH","MEAN_MOTION_DOT":"0.00004251","DECAY_DATE":null,"NORAD_CAT_ID":"46746","OBJECT_NAME":"STARLINK-1905","SEMIMAJOR_AXIS":"6925.383","LAUNCH_DATE":"2020-10-24","FILE":"3828819","MEAN_MOTION":"15.06388811","OBJECT_TYPE":"PAYLOAD","BSTAR":"0.00030417000000","EPOCH":"2023-02-23T13:52:12.309600","INCLINATION":"53.0519","GP_ID":"226565052","TLE_LINE1":"1 46746U 20074H   23054.57792025  .00004251  00000-0  30417-3 0  9991","REF_FRAME":"TEME","RA_OF_ASC_NODE":"265.1024","PERIAPSIS":"546.675","MEAN_ANOMALY":"280.3418","MEAN_MOTION_DDOT":"0.0000000000000","MEAN_ELEMENT_THEORY":"SGP4","COUNTRY_CODE":"US","APOAPSIS":"547.821","RCS_SIZE":"LARGE","TIME_SYSTEM":"UTC"},{"MEAN_MOTION_DOT":"0.00009703","DECAY_DATE":null,"OBJECT_NAME":"STARLINK-1908","NORAD_CAT_ID":"46747","SEMIMAJOR_AXIS":"6925.382","OBJECT_ID":"2020-074J","REV_AT_EPOCH":"12935","TLE_LINE2":"2 46747  53.0510 265.1831 0000598  79.8956 280.2100 15.06389139129354","EPHEMERIS_TYPE":"0","CLASSIFICATION_TYPE":"U","ARG_OF_PERICENTER":"79.8956","ECCENTRICITY":"0.00005980","PERIOD":"95.593","CENTER_NAME":"EARTH","ELEMENT_SET_NO":"999","SITE":"AFETR","PERIAPSIS":"546.833","MEAN_ELEMENT_THEORY":"SGP4","MEAN_MOTION_DDOT":"0.0000000000000","MEAN_ANOMALY":"280.2100","COUNTRY_CODE":"US","TIME_SYSTEM":"UTC","RCS_SIZE":"LARGE","APOAPSIS":"547.661","LAUNCH_DATE":"2020-10-24","OBJECT_TYPE":"PAYLOAD","BSTAR":"0.00066957000000","FILE":"3828819","MEAN_MOTION":"15.06389139","TLE_LINE1":"1 46747U 20074J   23054.55949125  .00009703  00000-0  66957-3 0  9990","REF_FRAME":"TEME","INCLINATION":"53.0510","GP_ID":"226563802","EPOCH":"2023-02-23T13:25:40.044000","RA_OF_ASC_NODE":"265.1831"},{"DECAY_DATE":null,"MEAN_MOTION_DOT":"0.00008740","SEMIMAJOR_AXIS":"6925.391","OBJECT_NAME":"STARLINK-1910","NORAD_CAT_ID":"46748","ARG_OF_PERICENTER":"340.2249","ECCENTRICITY":"0.00002870","REV_AT_EPOCH":"12935","OBJECT_ID":"2020-074K","EPHEMERIS_TYPE":"0","TLE_LINE2":"2 46748  53.0550 265.1491 0000287 340.2249  19.8729 15.06386181129353","CLASSIFICATION_TYPE":"U","CENTER_NAME":"EARTH","SITE":"AFETR","ELEMENT_SET_NO":"999","PERIOD":"95.593","MEAN_ELEMENT_THEORY":"SGP4","MEAN_MOTION_DDOT":"0.0000000000000","MEAN_ANOMALY":"19.8729","PERIAPSIS":"547.057","TIME_SYSTEM":"UTC","RCS_SIZE":"LARGE","APOAPSIS":"547.455","COUNTRY_CODE":"US","BSTAR":"0.00060510000000","OBJECT_TYPE":"PAYLOAD","FILE":"3828819","MEAN_MOTION":"15.06386181","LAUNCH_DATE":"2020-10-24","RA_OF_ASC_NODE":"265.1491","REF_FRAME":"TEME","TLE_LINE1":"1 46748U 20074K   23054.56685986  .00008740  00000-0  60510-3 0  9993","GP_ID":"226564052","INCLINATION":"53.0550","EPOCH":"2023-02-23T13:36:16.691904"},{"MEAN_ANOMALY":"264.9967","MEAN_MOTION_DDOT":"0.0000000000000","MEAN_ELEMENT_THEORY":"SGP4","PERIAPSIS":"546.528","APOAPSIS":"547.832","RCS_SIZE":"LARGE","TIME_SYSTEM":"UTC","COUNTRY_CODE":"US","FILE":"3829570","MEAN_MOTION":"15.06410932","OBJECT_TYPE":"PAYLOAD","BSTAR":"0.00105650000000","LAUNCH_DATE":"2020-10-24","RA_OF_ASC_NODE":"263.6342","EPOCH":"2023-02-23T21:44:35.415744","INCLINATION":"53.0506","GP_ID":"226586579","TLE_LINE1":"1 46749U 20074L   23054.90596546  .00015495  00000-0  10565-2 0  9994","REF_FRAME":"TEME","DECAY_DATE":null,"MEAN_MOTION_DOT":"0.00015495","SEMIMAJOR_AXIS":"6925.315","NORAD_CAT_ID":"46749","OBJECT_NAME":"STARLINK-1911","ECCENTRICITY":"0.00009410","ARG_OF_PERICENTER":"95.1129","EPHEMERIS_TYPE":"0","TLE_LINE2":"2 46749  53.0506 263.6342 0000941  95.1129 264.9967 15.06410932129420","CLASSIFICATION_TYPE":"U","REV_AT_EPOCH":"12942","OBJECT_ID":"2020-074L","ELEMENT_SET_NO":"999","SITE":"AFETR","CENTER_NAME":"EARTH","PERIOD":"95.591"},{"MEAN_MOTION_DOT":"0.00015658","DECAY_DATE":null,"NORAD_CAT_ID":"46751","OBJECT_NAME":"STARLINK-1920","SEMIMAJOR_AXIS":"6925.312","EPHEMERIS_TYPE":"0","TLE_LINE2":"2 46751  53.0504 263.3522 0001222  85.5311 274.5817 15.06411836129422","CLASSIFICATION_TYPE":"U","OBJECT_ID":"2020-074N","REV_AT_EPOCH":"12942","ECCENTRICITY":"0.00012220","ARG_OF_PERICENTER":"85.5311","PERIOD":"95.591","ELEMENT_SET_NO":"999","SITE":"AFETR","CENTER_NAME":"EARTH","PERIAPSIS":"546.331","MEAN_ANOMALY":"274.5817","MEAN_MOTION_DDOT":"0.0000000000000","MEAN_ELEMENT_THEORY":"SGP4","COUNTRY_CODE":"US","RCS_SIZE":"LARGE","APOAPSIS":"548.024","TIME_SYSTEM":"UTC","LAUNCH_DATE":"2020-10-24","FILE":"3829637","MEAN_MOTION":"15.06411836","BSTAR":"0.00106740000000","OBJECT_TYPE":"PAYLOAD","EPOCH":"2023-02-23T23:14:49.401312","GP_ID":"226588385","INCLINATION":"53.0504","TLE_LINE1":"1 46751U 20074N   23054.96862733  .00015658  00000-0  10674-2 0  9999","REF_FRAME":"TEME","RA_OF_ASC_NODE":"263.3522"}];
